SL-3 R/B                
1 04814U 70113B   17345.89973609  .00001377  00000-0  41234-4 0  9996
2 04814  81.1417 177.8955 0025657 186.5365 173.5542 15.33456010562279
